TRANSPORTER-16 OBJECT AX
1 68461U 26067AX  26104.14277098  .00004359  00000+0  22211-3 0  9998
2 68461  97.4501  63.5583 0002118 311.3332  48.7719 15.17292500  2225
