{
  "norad_id": 68461,
  "name": "TRANSPORTER-16 OBJECT AX",
  "history": [
    {
      "epoch": "2026-04-14T03:25:35.412672Z",
      "apogee_km": 515.4875268832711,
      "perigee_km": 512.5674546318278,
      "latitude_deg": 4.2214388029667076e-06,
      "longitude_deg": 169.83731170894617,
      "height_km": 516.1505866032566,
      "semi_major_axis_km": 6892.164490757549,
      "eccentricity": 0.00021184,
      "inclination_deg": 97.4501,
      "raan_deg": 63.5583,
      "arg_perigee_deg": 311.3332,
      "mean_anomaly_deg": 48.7719,
      "mean_motion_rev_day": 15.172925
    }
  ]
}